[{"OBJECT_NAME":"STARLINK-3349","OBJECT_ID":"2022-001L","EPOCH":"2026-03-09T11:24:24.163488","MEAN_MOTION":15.3598126,"ECCENTRICITY":0.00040972,"INCLINATION":53.2075,"RA_OF_ASC_NODE":124.5069,"ARG_OF_PERICENTER":337.7117,"MEAN_ANOMALY":22.3708,"EPHEMERIS_TYPE":0,"CLASSIFICATION_TYPE":"U","NORAD_CAT_ID":50813,"ELEMENT_SET_NO":999,"REV_AT_EPOCH":23102,"BSTAR":0.0012714399,"MEAN_MOTION_DOT":0.00045078,"MEAN_MOTION_DDOT":0},{"OBJECT_NAME":"TAURUS R\/B","OBJECT_ID":"2000-014B","EPOCH":"2026-03-09T17:34:52.155840","MEAN_MOTION":15.39389421,"ECCENTRICITY":0.00149672,"INCLINATION":97.4179,"RA_OF_ASC_NODE":3.0855,"ARG_OF_PERICENTER":325.8693,"MEAN_ANOMALY":34.1589,"EPHEMERIS_TYPE":0,"CLASSIFICATION_TYPE":"U","NORAD_CAT_ID":26103,"ELEMENT_SET_NO":999,"REV_AT_EPOCH":43012,"BSTAR":0.00036037476,"MEAN_MOTION_DOT":0.0001407,"MEAN_MOTION_DDOT":0}]
